IRIDIUM 112             
1 41925U 17003J   24094.84206137  .00000088  00000+0  24528-4 0  9992
2 41925  86.3942  64.4398 0002174  93.2354 266.9091 14.34215272378012
IRIDIUM 111             
1 41926U 17003K   24094.41075683  .00000091  00000+0  25299-4 0  9996
2 41926  86.3943  64.6729 0002424  93.5678 266.5795 14.34213945377903
IRIDIUM 113             
1 42803U 17039A   24094.53027263  .00000122  00000+0  36563-4 0  9995
2 42803  86.3927 298.4181 0002163  93.6074 266.5369 14.34213628355855
IRIDIUM 123             
1 42804U 17039B   24094.36244387  .00000253  00000+0  83175-4 0  9991
2 42804  86.3981 329.9969 0002224  90.5291 269.6160 14.34218581354591
IRIDIUM 120             
1 42805U 17039C   24094.52394908  .00000028  00000+0  28170-5 0  9990
2 42805  86.3915 298.3073 0002147  87.3641 272.7800 14.34217950355845
IRIDIUM 115             
1 42806U 17039D   24094.53413811  .00000493  00000+0  14063-3 0  9997
2 42806  86.4454 298.3167 0002176  94.6877 265.4572 14.43273851358203
IRIDIUM 118             
1 42807U 17039E   24094.60346844  .00000334  00000+0  11212-3 0  9994
2 42807  86.3982 329.8978 0002041  87.0616 273.0813 14.34217877354628
IRIDIUM 117             
1 42808U 17039F   24094.62248549  .00000297  00000+0  99069-4 0  9995
2 42808  86.3981 329.8549 0002341  88.7130 271.4334 14.34217676354654
